{
  "type": "FeatureCollection",
  "features": [
    {
      "type": "Feature",
      "properties": {
        "norad_id": 66626,
        "name": "STARLINK-35902",
        "group": "last-30-days",
        "lat": -50.18276563231539,
        "lon": 71.44416316258219,
        "alt_km": 422.0313163881583,
        "timestamp": "2025-12-12T16:50:31.911590+00:00",
        "meta_object_name": "STARLINK-35902",
        "meta_object_id": "2025-271K",
        "meta_epoch": "2025-12-12T06:00:00.999648",
        "meta_mean_motion": 15.51874788,
        "meta_eccentricity": 0.00010925,
        "meta_inclination": 53.1596,
        "meta_ra_of_asc_node": 189.5431,
        "meta_arg_of_pericenter": 89.504,
        "meta_mean_anomaly": 160.4531,
        "meta_ephemeris_type": 0,
        "meta_classification_type": "U",
        "meta_norad_cat_id": 66626,
        "meta_element_set_no": 999,
        "meta_rev_at_epoch": 416,
        "meta_bstar": -0.033910558,
        "meta_mean_motion_dot": -0.01830271,
        "meta_mean_motion_ddot": 0,
        "tle_line1": "1 66626U 25271K   25346.25001157 -.01830271  00000+0 -33911-1 0  9995",
        "tle_line2": "2 66626  53.1596 189.5431 0001092  89.5040 160.4531 15.51874788  4161"
      },
      "geometry": {
        "type": "Point",
        "coordinates": [
          71.44416316258219,
          -50.18276563231539
        ]
      }
    },
    {
      "type": "Feature",
      "properties": {
        "norad_id": 66627,
        "name": "STARLINK-35904",
        "group": "last-30-days",
        "lat": -50.81806130295585,
        "lon": 74.27685103443144,
        "alt_km": 422.01676295262587,
        "timestamp": "2025-12-12T16:50:31.911602+00:00",
        "meta_object_name": "STARLINK-35904",
        "meta_object_id": "2025-271L",
        "meta_epoch": "2025-12-12T06:00:00.999648",
        "meta_mean_motion": 15.51872707,
        "meta_eccentricity": 0.0001059,
        "meta_inclination": 53.1598,
        "meta_ra_of_asc_node": 189.539,
        "meta_arg_of_pericenter": 91.3549,
        "meta_mean_anomaly": 160.5173,
        "meta_ephemeris_type": 0,
        "meta_classification_type": "U",
        "meta_norad_cat_id": 66627,
        "meta_element_set_no": 999,
        "meta_rev_at_epoch": 400,
        "meta_bstar": -0.033800144,
        "meta_mean_motion_dot": -0.01824853,
        "meta_mean_motion_ddot": 0,
        "tle_line1": "1 66627U 25271L   25346.25001157 -.01824853  00000+0 -33800-1 0  9992",
        "tle_line2": "2 66627  53.1598 189.5390 0001059  91.3549 160.5173 15.51872707  4001"
      },
      "geometry": {
        "type": "Point",
        "coordinates": [
          74.27685103443144,
          -50.81806130295585
        ]
      }
    },
    {
      "type": "Feature",
      "properties": {
        "norad_id": 66628,
        "name": "STARLINK-35862",
        "group": "last-30-days",
        "lat": -51.38267600980931,
        "lon": 77.18427260098271,
        "alt_km": 422.125711933867,
        "timestamp": "2025-12-12T16:50:31.911614+00:00",
        "meta_object_name": "STARLINK-35862",
        "meta_object_id": "2025-271M",
        "meta_epoch": "2025-12-12T06:00:00.999648",
        "meta_mean_motion": 15.51871168,
        "meta_eccentricity": 0.0001182,
        "meta_inclination": 53.1598,
        "meta_ra_of_asc_node": 189.5351,
        "meta_arg_of_pericenter": 89.8218,
        "meta_mean_anomaly": 163.9683,
        "meta_ephemeris_type": 0,
        "meta_classification_type": "U",
        "meta_norad_cat_id": 66628,
        "meta_element_set_no": 999,
        "meta_rev_at_epoch": 416,
        "meta_bstar": -0.033761625,
        "meta_mean_motion_dot": -0.01822988,
        "meta_mean_motion_ddot": 0,
        "tle_line1": "1 66628U 25271M   25346.25001157 -.01822988  00000+0 -33762-1 0  9997",
        "tle_line2": "2 66628  53.1598 189.5351 0001182  89.8218 163.9683 15.51871168  4161"
      },
      "geometry": {
        "type": "Point",
        "coordinates": [
          77.18427260098271,
          -51.38267600980931
        ]
      }
    },
    {
      "type": "Feature",
      "properties": {
        "norad_id": 66629,
        "name": "STARLINK-35956",
        "group": "last-30-days",
        "lat": -51.87316435835799,
        "lon": 80.1580278796125,
        "alt_km": 422.13991396394795,
        "timestamp": "2025-12-12T16:50:31.911623+00:00",
        "meta_object_name": "STARLINK-35956",
        "meta_object_id": "2025-271N",
        "meta_epoch": "2025-12-12T06:00:00.999648",
        "meta_mean_motion": 15.51874366,
        "meta_eccentricity": 0.00011508,
        "meta_inclination": 53.1598,
        "meta_ra_of_asc_node": 189.5314,
        "meta_arg_of_pericenter": 87.6753,
        "meta_mean_anomaly": 168.0321,
        "meta_ephemeris_type": 0,
        "meta_classification_type": "U",
        "meta_norad_cat_id": 66629,
        "meta_element_set_no": 999,
        "meta_rev_at_epoch": 416,
        "meta_bstar": -0.033894552,
        "meta_mean_motion_dot": -0.01829513,
        "meta_mean_motion_ddot": 0,
        "tle_line1": "1 66629U 25271N   25346.25001157 -.01829513  00000+0 -33895-1 0  9996",
        "tle_line2": "2 66629  53.1598 189.5314 0001150  87.6753 168.0321 15.51874366  4164"
      },
      "geometry": {
        "type": "Point",
        "coordinates": [
          80.1580278796125,
          -51.87316435835799
        ]
      }
    },
    {
      "type": "Feature",
      "properties": {
        "norad_id": 66630,
        "name": "STARLINK-35949",
        "group": "last-30-days",
        "lat": -52.28459783161679,
        "lon": 83.17167250679512,
        "alt_km": 422.24268233292605,
        "timestamp": "2025-12-12T16:50:31.911633+00:00",
        "meta_object_name": "STARLINK-35949",
        "meta_object_id": "2025-271P",
        "meta_epoch": "2025-12-12T06:00:00.999648",
        "meta_mean_motion": 15.5188249,
        "meta_eccentricity": 0.00012372,
        "meta_inclination": 53.1598,
        "meta_ra_of_asc_node": 189.5262,
        "meta_arg_of_pericenter": 100.0179,
        "meta_mean_anomaly": 157.6034,
        "meta_ephemeris_type": 0,
        "meta_classification_type": "U",
        "meta_norad_cat_id": 66630,
        "meta_element_set_no": 999,
        "meta_rev_at_epoch": 416,
        "meta_bstar": -0.03447775,
        "meta_mean_motion_dot": -0.01857855,
        "meta_mean_motion_ddot": 0,
        "tle_line1": "1 66630U 25271P   25346.25001157 -.01857855  00000+0 -34478-1 0  9996",
        "tle_line2": "2 66630  53.1598 189.5262 0001237 100.0179 157.6034 15.51882490  4168"
      },
      "geometry": {
        "type": "Point",
        "coordinates": [
          83.17167250679512,
          -52.28459783161679
        ]
      }
    },
    {
      "type": "Feature",
      "properties": {
        "norad_id": 66631,
        "name": "STARLINK-35965",
        "group": "last-30-days",
        "lat": -52.62214725940609,
        "lon": 86.29064080470147,
        "alt_km": 422.020967432205,
        "timestamp": "2025-12-12T16:50:31.911644+00:00",
        "meta_object_name": "STARLINK-35965",
        "meta_object_id": "2025-271Q",
        "meta_epoch": "2025-12-12T06:00:00.999648",
        "meta_mean_motion": 15.51871226,
        "meta_eccentricity": 9.915e-05,
        "meta_inclination": 53.1593,
        "meta_ra_of_asc_node": 189.523,
        "meta_arg_of_pericenter": 88.7253,
        "meta_mean_anomaly": 170.816,
        "meta_ephemeris_type": 0,
        "meta_classification_type": "U",
        "meta_norad_cat_id": 66631,
        "meta_element_set_no": 999,
        "meta_rev_at_epoch": 416,
        "meta_bstar": -0.033622214,
        "meta_mean_motion_dot": -0.01816217,
        "meta_mean_motion_ddot": 0,
        "tle_line1": "1 66631U 25271Q   25346.25001157 -.01816217  00000+0 -33622-1 0  9994",
        "tle_line2": "2 66631  53.1593 189.5230 0000991  88.7253 170.8160 15.51871226  4162"
      },
      "geometry": {
        "type": "Point",
        "coordinates": [
          86.29064080470147,
          -52.62214725940609
        ]
      }
    },
    {
      "type": "Feature",
      "properties": {
        "norad_id": 66632,
        "name": "STARLINK-35973",
        "group": "last-30-days",
        "lat": -52.87480670509102,
        "lon": 89.41934981922549,
        "alt_km": 422.0738528045431,
        "timestamp": "2025-12-12T16:50:31.911656+00:00",
        "meta_object_name": "STARLINK-35973",
        "meta_object_id": "2025-271R",
        "meta_epoch": "2025-12-12T06:00:00.999648",
        "meta_mean_motion": 15.51870006,
        "meta_eccentricity": 0.0001047,
        "meta_inclination": 53.1593,
        "meta_ra_of_asc_node": 189.5189,
        "meta_arg_of_pericenter": 89.3495,
        "meta_mean_anomaly": 172.1111,
        "meta_ephemeris_type": 0,
        "meta_classification_type": "U",
        "meta_norad_cat_id": 66632,
        "meta_element_set_no": 999,
        "meta_rev_at_epoch": 410,
        "meta_bstar": -0.033637393,
        "meta_mean_motion_dot": -0.01816903,
        "meta_mean_motion_ddot": 0,
        "tle_line1": "1 66632U 25271R   25346.25001157 -.01816903  00000+0 -33637-1 0  9993",
        "tle_line2": "2 66632  53.1593 189.5189 0001047  89.3495 172.1111 15.51870006  4104"
      },
      "geometry": {
        "type": "Point",
        "coordinates": [
          89.41934981922549,
          -52.87480670509102
        ]
      }
    }
  ]
}